COSMOS 2251 DEB         
1 34343U 93036PR  26063.56993838  .00009777  00000+0  15877-2 0  9995
2 34343  74.0184 290.6704 0022742 187.6912 187.0462 14.71065738899334
COSMOS 2251 DEB         
1 34344U 93036PS  26063.12872059  .00003939  00000+0  17516-2 0  9995
2 34344  73.9793 324.9678 0154538 131.7881 351.5632 14.17049390872495
COSMOS 2251 DEB         
1 34346U 93036PU  26063.73669546  .00001472  00000+0  84273-3 0  9994
2 34346  73.9943 169.9230 0208841 329.7643 181.8767 14.00016518865579
COSMOS 2251 DEB         
1 34383U 93036PY  26063.62594977  .00091671  00000+0  40010-2 0  9998
2 34383  74.0256 127.3128 0012985 292.6642 218.8708 15.21616696903534
COSMOS 2251 DEB         
1 34387U 93036QC  26063.42664517  .00001374  00000+0  40591-3 0  9994
2 34387  74.0390  60.0325 0036817 140.4449  11.6168 14.44052152893604
COSMOS 2251 DEB         
1 34388U 93036QD  26063.45402247  .00003892  00000+0  10130-2 0  9990
2 34388  74.0373  69.7796 0010044 104.5227  45.9326 14.49899314893399
COSMOS 2251 DEB         
1 34389U 93036QE  26063.47837617  .00001447  00000+0  44879-3 0  9998
2 34389  74.0165  98.2206 0029817 197.2406 275.6049 14.41778031891901
COSMOS 2251 DEB         
1 34396U 93036QM  26063.17688392  .00019151  00000+0  27159-2 0  9999
2 34396  74.0301 324.6452 0004848 328.7788 187.5616 14.76956174895472
COSMOS 2251 DEB         
1 34409U 93036RA  26063.33619815  .00001468  00000+0  31044-3 0  9997
2 34409  74.0637 151.8446 0080651 206.9156 219.7584 14.58242205903828
COSMOS 2251 DEB         
1 34410U 93036RB  26063.47087972  .00118101  00000+0  39850-2 0  9992
2 34410  73.7302  86.2163 0026026 275.4105  84.4126 15.29823435910199
COSMOS 2251 DEB         
1 34412U 93036RD  26062.69505242  .00006093  00000+0  13126-2 0  9996
2 34412  73.9488 172.2209 0188570 250.0467 108.0295 14.48130676888224
COSMOS 2251 DEB         
1 34413U 93036RE  26063.59398104  .00003147  00000+0  11819-2 0  9998
2 34413  74.0293 116.1370 0089868 177.1006 335.6326 14.29767043883002
COSMOS 2251 DEB         
1 34420U 93036RM  26063.78153227  .00001374  00000+0  22359-3 0  9994
2 34420  74.0331 305.2404 0104439  44.4381  66.0607 14.68517801909741
COSMOS 2251 DEB         
1 34425U 93036RS  26063.53248742  .00003701  00000+0  72925-3 0  9999
2 34425  74.0159 257.6648 0025554 359.3046   0.8081 14.62686984899361
COSMOS 2251 DEB         
1 34430U 93036RX  26063.33240077  .00001813  00000+0  57239-3 0  9999
2 34430  74.0518 152.7912 0061077 205.2744 154.5421 14.39899859891299
COSMOS 2251 DEB         
1 34431U 93036RY  26063.33974678  .00002662  00000+0  10345-2 0  9990
2 34431  74.0763  27.4558 0067599 350.1453   9.8365 14.29081177883080
