[{"OBJECT_NAME":"COSMOS 2251 DEB","OBJECT_ID":"1993-036PR","EPOCH":"2026-03-04T13:40:42.676032","MEAN_MOTION":14.71065738,"ECCENTRICITY":0.0022742,"INCLINATION":74.0184,"RA_OF_ASC_NODE":290.6704,"ARG_OF_PERICENTER":187.6912,"MEAN_ANOMALY":187.0462,"EPHEMERIS_TYPE":0,"CLASSIFICATION_TYPE":"U","NORAD_CAT_ID":34343,"ELEMENT_SET_NO":999,"REV_AT_EPOCH":89933,"BSTAR":0.0015877,"MEAN_MOTION_DOT":9.777e-5,"MEAN_MOTION_DDOT":0},{"OBJECT_NAME":"COSMOS 2251 DEB","OBJECT_ID":"1993-036PS","EPOCH":"2026-03-04T03:05:21.458976","MEAN_MOTION":14.1704939,"ECCENTRICITY":0.01545389,"INCLINATION":73.9793,"RA_OF_ASC_NODE":324.9678,"ARG_OF_PERICENTER":131.7881,"MEAN_ANOMALY":351.5632,"EPHEMERIS_TYPE":0,"CLASSIFICATION_TYPE":"U","NORAD_CAT_ID":34344,"ELEMENT_SET_NO":999,"REV_AT_EPOCH":87249,"BSTAR":0.0017515508,"MEAN_MOTION_DOT":3.939e-5,"MEAN_MOTION_DDOT":0},{"OBJECT_NAME":"COSMOS 2251 DEB","OBJECT_ID":"1993-036PU","EPOCH":"2026-03-04T17:40:50.487744","MEAN_MOTION":14.00016518,"ECCENTRICITY":0.0208841,"INCLINATION":73.9943,"RA_OF_ASC_NODE":169.923,"ARG_OF_PERICENTER":329.7643,"MEAN_ANOMALY":181.8767,"EPHEMERIS_TYPE":0,"CLASSIFICATION_TYPE":"U","NORAD_CAT_ID":34346,"ELEMENT_SET_NO":999,"REV_AT_EPOCH":86557,"BSTAR":0.00084273,"MEAN_MOTION_DOT":1.472e-5,"MEAN_MOTION_DDOT":0},{"OBJECT_NAME":"COSMOS 2251 DEB","OBJECT_ID":"1993-036PY","EPOCH":"2026-03-04T15:01:22.060128","MEAN_MOTION":15.21616696,"ECCENTRICITY":0.0012985,"INCLINATION":74.0256,"RA_OF_ASC_NODE":127.3128,"ARG_OF_PERICENTER":292.6642,"MEAN_ANOMALY":218.8708,"EPHEMERIS_TYPE":0,"CLASSIFICATION_TYPE":"U","NORAD_CAT_ID":34383,"ELEMENT_SET_NO":999,"REV_AT_EPOCH":90353,"BSTAR":0.004001,"MEAN_MOTION_DOT":0.00091671,"MEAN_MOTION_DDOT":0},{"OBJECT_NAME":"COSMOS 2251 DEB","OBJECT_ID":"1993-036QC","EPOCH":"2026-03-04T10:14:22.142688","MEAN_MOTION":14.44052152,"ECCENTRICITY":0.00368179,"INCLINATION":74.039,"RA_OF_ASC_NODE":60.0325,"ARG_OF_PERICENTER":140.4449,"MEAN_ANOMALY":11.6168,"EPHEMERIS_TYPE":0,"CLASSIFICATION_TYPE":"U","NORAD_CAT_ID":34387,"ELEMENT_SET_NO":999,"REV_AT_EPOCH":89360,"BSTAR":0.00040590713,"MEAN_MOTION_DOT":1.374e-5,"MEAN_MOTION_DDOT":0},{"OBJECT_NAME":"COSMOS 2251 DEB","OBJECT_ID":"1993-036QD","EPOCH":"2026-03-04T10:53:47.541408","MEAN_MOTION":14.49899314,"ECCENTRICITY":0.00100446,"INCLINATION":74.0373,"RA_OF_ASC_NODE":69.7796,"ARG_OF_PERICENTER":104.5227,"MEAN_ANOMALY":45.9326,"EPHEMERIS_TYPE":0,"CLASSIFICATION_TYPE":"U","NORAD_CAT_ID":34388,"ELEMENT_SET_NO":999,"REV_AT_EPOCH":89339,"BSTAR":0.001013037,"MEAN_MOTION_DOT":3.892e-5,"MEAN_MOTION_DDOT":0},{"OBJECT_NAME":"COSMOS 2251 DEB","OBJECT_ID":"1993-036QE","EPOCH":"2026-03-04T11:28:51.701088","MEAN_MOTION":14.41778031,"ECCENTRICITY":0.00298179,"INCLINATION":74.0165,"RA_OF_ASC_NODE":98.2206,"ARG_OF_PERICENTER":197.2406,"MEAN_ANOMALY":275.6049,"EPHEMERIS_TYPE":0,"CLASSIFICATION_TYPE":"U","NORAD_CAT_ID":34389,"ELEMENT_SET_NO":999,"REV_AT_EPOCH":89190,"BSTAR":0.00044879098,"MEAN_MOTION_DOT":1.447e-5,"MEAN_MOTION_DDOT":0},{"OBJECT_NAME":"COSMOS 2251 DEB","OBJECT_ID":"1993-036QM","EPOCH":"2026-03-04T04:14:42.770688","MEAN_MOTION":14.76956174,"ECCENTRICITY":0.00048489,"INCLINATION":74.0301,"RA_OF_ASC_NODE":324.6452,"ARG_OF_PERICENTER":328.7788,"MEAN_ANOMALY":187.5616,"EPHEMERIS_TYPE":0,"CLASSIFICATION_TYPE":"U","NORAD_CAT_ID":34396,"ELEMENT_SET_NO":999,"REV_AT_EPOCH":89547,"BSTAR":0.0027159314,"MEAN_MOTION_DOT":0.00019151,"MEAN_MOTION_DDOT":0},{"OBJECT_NAME":"COSMOS 2251 DEB","OBJECT_ID":"1993-036RA","EPOCH":"2026-03-04T08:04:07.520160","MEAN_MOTION":14.58242205,"ECCENTRICITY":0.00806519,"INCLINATION":74.0637,"RA_OF_ASC_NODE":151.8446,"ARG_OF_PERICENTER":206.9156,"MEAN_ANOMALY":219.7584,"EPHEMERIS_TYPE":0,"CLASSIFICATION_TYPE":"U","NORAD_CAT_ID":34409,"ELEMENT_SET_NO":999,"REV_AT_EPOCH":90382,"BSTAR":0.0003104405,"MEAN_MOTION_DOT":1.468e-5,"MEAN_MOTION_DDOT":0},{"OBJECT_NAME":"COSMOS 2251 DEB","OBJECT_ID":"1993-036RB","EPOCH":"2026-03-04T11:18:04.007808","MEAN_MOTION":15.29823435,"ECCENTRICITY":0.00260264,"INCLINATION":73.7302,"RA_OF_ASC_NODE":86.2163,"ARG_OF_PERICENTER":275.4105,"MEAN_ANOMALY":84.4126,"EPHEMERIS_TYPE":0,"CLASSIFICATION_TYPE":"U","NORAD_CAT_ID":34410,"ELEMENT_SET_NO":999,"REV_AT_EPOCH":91019,"BSTAR":0.0039850322,"MEAN_MOTION_DOT":0.00118101,"MEAN_MOTION_DDOT":0},{"OBJECT_NAME":"COSMOS 2251 DEB","OBJECT_ID":"1993-036RD","EPOCH":"2026-03-03T16:40:52.529088","MEAN_MOTION":14.48130676,"ECCENTRICITY":0.01885703,"INCLINATION":73.9488,"RA_OF_ASC_NODE":172.2209,"ARG_OF_PERICENTER":250.0467,"MEAN_ANOMALY":108.0295,"EPHEMERIS_TYPE":0,"CLASSIFICATION_TYPE":"U","NORAD_CAT_ID":34412,"ELEMENT_SET_NO":999,"REV_AT_EPOCH":88822,"BSTAR":0.0013125716,"MEAN_MOTION_DOT":6.093e-5,"MEAN_MOTION_DDOT":0},{"OBJECT_NAME":"COSMOS 2251 DEB","OBJECT_ID":"1993-036RE","EPOCH":"2026-03-04T14:15:19.961856","MEAN_MOTION":14.29767043,"ECCENTRICITY":0.0089868,"INCLINATION":74.0293,"RA_OF_ASC_NODE":116.137,"ARG_OF_PERICENTER":177.1006,"MEAN_ANOMALY":335.6326,"EPHEMERIS_TYPE":0,"CLASSIFICATION_TYPE":"U","NORAD_CAT_ID":34413,"ELEMENT_SET_NO":999,"REV_AT_EPOCH":88300,"BSTAR":0.0011819,"MEAN_MOTION_DOT":3.147e-5,"MEAN_MOTION_DDOT":0},{"OBJECT_NAME":"COSMOS 2251 DEB","OBJECT_ID":"1993-036RM","EPOCH":"2026-03-04T18:45:24.388128","MEAN_MOTION":14.68517801,"ECCENTRICITY":0.0104439,"INCLINATION":74.0331,"RA_OF_ASC_NODE":305.2404,"ARG_OF_PERICENTER":44.4381,"MEAN_ANOMALY":66.0607,"EPHEMERIS_TYPE":0,"CLASSIFICATION_TYPE":"U","NORAD_CAT_ID":34420,"ELEMENT_SET_NO":999,"REV_AT_EPOCH":90974,"BSTAR":0.00022359,"MEAN_MOTION_DOT":1.374e-5,"MEAN_MOTION_DDOT":0},{"OBJECT_NAME":"COSMOS 2251 DEB","OBJECT_ID":"1993-036RS","EPOCH":"2026-03-04T12:46:46.913088","MEAN_MOTION":14.62686984,"ECCENTRICITY":0.00255548,"INCLINATION":74.0159,"RA_OF_ASC_NODE":257.6648,"ARG_OF_PERICENTER":359.3046,"MEAN_ANOMALY":0.8081,"EPHEMERIS_TYPE":0,"CLASSIFICATION_TYPE":"U","NORAD_CAT_ID":34425,"ELEMENT_SET_NO":999,"REV_AT_EPOCH":89936,"BSTAR":0.00072924868,"MEAN_MOTION_DOT":3.701e-5,"MEAN_MOTION_DDOT":0},{"OBJECT_NAME":"COSMOS 2251 DEB","OBJECT_ID":"1993-036RX","EPOCH":"2026-03-04T07:58:39.426528","MEAN_MOTION":14.39899859,"ECCENTRICITY":0.00610775,"INCLINATION":74.0518,"RA_OF_ASC_NODE":152.7912,"ARG_OF_PERICENTER":205.2744,"MEAN_ANOMALY":154.5421,"EPHEMERIS_TYPE":0,"CLASSIFICATION_TYPE":"U","NORAD_CAT_ID":34430,"ELEMENT_SET_NO":999,"REV_AT_EPOCH":89129,"BSTAR":0.00057238877,"MEAN_MOTION_DOT":1.813e-5,"MEAN_MOTION_DDOT":0},{"OBJECT_NAME":"COSMOS 2251 DEB","OBJECT_ID":"1993-036RY","EPOCH":"2026-03-04T08:09:14.121792","MEAN_MOTION":14.29081177,"ECCENTRICITY":0.00675994,"INCLINATION":74.0763,"RA_OF_ASC_NODE":27.4558,"ARG_OF_PERICENTER":350.1453,"MEAN_ANOMALY":9.8365,"EPHEMERIS_TYPE":0,"CLASSIFICATION_TYPE":"U","NORAD_CAT_ID":34431,"ELEMENT_SET_NO":999,"REV_AT_EPOCH":88308,"BSTAR":0.0010345289,"MEAN_MOTION_DOT":2.662e-5,"MEAN_MOTION_DDOT":0}]
